name,addr1,addr2,city,state,zip,Phone,Fax,email,contact
"LIGHTNING ARROW, INC.",15642 DUPONT AVE.,,CHINO,CA,91710-7600,(909) 393-9595,(909) 393-1904,,
GOLDEN STATE FENCE CO.,2861 LA CRESTA AVENUE,,ANAHEIM,CA,92806,(714) 238-0091,(714) 238-0096,,
MOUNTAIN STATES WHLSE NURSERY,P.O. BOX 2500,,LITCHFIELD,AZ,85340-2500,(623) 247-8509,(623) 247-6354,,(JULIE)
RIVER RANCH RECYCLING,14545 RIVER ROAD,,CORONA,CA,91720,(909) 738-8294,(909) 738-8297,,JOANE
MONROVIA NSY,,,,,,(800) 449-9321,(559) 564-5820,,DAVE
HILLCREST CONSTRUCTION CO,4842 SCHOOL STREET,,YORBA LINDA,CA,92686,(714) 777-1072,(714) 777-0721,jerry@test.com,RANDY MCDANIEL
PACIFIC BELL 9492629623,PAYMENT CENTER,,VAN NUYS,CA,91388-0001,(800) 750-2355,,,
SUNNY SLOPE TREES,"4025 E. LA PALMA AVE., #203",,ANAHEIM,CA,92807-1716,(714) 632-5550,(714) 632-6660,,MARK 714 412 2466
AJJ ASSOCIATES,355 N. LANTANA ST.,SUITE 560,CAMARILLO,CA,93010-9030,(949) 951-8850,,,(949)9169174  FAX
DURLING NURSERY *,40401 DELUZ ROAD,,FALLBROOK,CA,92028-8553,(760) 728-9572,(760) 728-5835,,JULIE
"FOSTER'S GARDENS, INC.",17671 CASSIA TREE LANE,,IRVINE,CA,92612,(949) 631-6340,,,
QUICK CRETE PRODUCTS CORP *,PO BOX 639,,NORCO,CA,92860-0639,(951) 737-6240,(951) 549-1143,,ANGIE - (951)734-8154 FAX
NITAO NURSERY,2333 E. TAFT AVENUE,,ORANGE,CA,92867,(714) 974-0140,(714) 974-9061,,(KEN)
GANAHL LUMBER CO.,P.O. BOX 31,,ANAHEIM,CA,92815-0031,(714) 772-5444,,,
CALIFORNIA CACTUS,216 S. ROSEMEAD BLVD.,,PASADENA,CA,91107,(626) 795-2788,(626) 795-1908,,MOLY (626)712 9008
COASTLINE CURBING INC.,9092 JURUPA ROAD,,RIVERSIDE,CA,92509-3106,(951) 360-8160,(951) 360-1230,,shanna/jeff 951 757-7234 CELL
CALIFORNIA FENCE CONCEPTS,2618 S. ORANGE BLDG  #A,,SANTA ANA,CA,92707,(714) 549-4966,,,
"SCHORR METALS, INC.",837 S. KRAEMER BLVD.,,PLACENTIA,CA,92870-6501,(714) 630-1962,(714) 666-8118,,LINDA
PACIFIC SOD *,DEPARTMENT 1489,,LOS ANGELES,CA,90084-1489,(800) 942-5296,(805) 986-5210,,TERRY
POWERTRON BATTERY CO.,2216 W. SECOND STREET,,SANTA ANA,CA,92703,(714) 543-4858,(714) 543-9211,,
SUBURBAN PROPANE,535 S. MELROSE AVENUE,,PLACENTIA,CA,92670-6305,(714) 993-9400,(714) 572-9556,,(GEORGIA A/R) ALICIA
AY NURSERY,P.O. BOX 2025,,SOUTH GATE,CA,90280,(951) 780-2444,(951) 780-3050,,SALVADOR
PELTZER NURSERY,3950 MIRALOMA AVE.,,ANAHEIM,CA,92806,(   )    -,,,
MCFADDEN-DALE HARDWARE CO,2925 EAST LA PALMA AVE.,,ANAHEIM,CA,92806-2617,(714) 630-6390,(714) 630-7615,,NANCY
EWING IRRIGATION PRODUCTS *,302 E. STEVENS AVE.,,SANTA ANA,CA,92707,(714) 447-9530,(714) 447-9160,,JOSE
VALLEY BUILDING MATERIALS,23271 CHERRY AVE,,LAKE FOREST,CA,92630-5331,(949) 855-9994,(949) 855-2063,,(TERESA 949-598-0256)
VISTA WHOLESALE NURSERY,2000 JEFFERSON STREET,,RIVERSIDE,CA,92504-5432,(951) 343-5995,(951) 343-5998,,MIKE 951 830 0795
PETERSON BROTHERS CONSTRUCTION,1560 W. LAMBERT ROAD,,BREA,CA,92821,(714) 278-0488,(714) 989-2291,,GUILLERMI (714) 989-2291 FAX #
WHITE CAP INDUSTRIES,PO BOX 1770,,COSTA MESA,CA,92628,(714) 258-3300,(866) 964-5859,,ROB DAW
"EQUIPMENT DIRECT, INC.",P.O. BOX 670,,YORBA LINDA,CA,92885,(800) 424-4410,(800) 842-2412,,(BERNIDINE)
SULLIVAN AND MANN LUMBER,1250 W. TRENTON,,ORANGE,CA,92667,(714) 665-2460,(714) 665-2457,,MATT 714 328 5555
RECYCLED WOOD PRODUCTS,1313 E. PHILLIPS BLVD,,POMONA,CA,91766,(909) 868-6882,(909) 868-1162,,KATHY/MARIA/PATTI
"DAVE BANG ASSOCIATES, INC",P.O. BOX 1088,,TUSTIN,CA,92681,(800) 669-2585,(800) 729-2483,,
ORANGE COUNTY FARM SUPPLY *,1826 WEST CHAPMAN,,ORANGE,CA,92668,(714) 978-6500,,,
ORANGE COAST MASONRY,601 N. BATAVIA,,ORANGE,CA,92668,(714) 538-4386,(714) 288-0653,,
WHITTIER FERTILIZER,P.O. BOX 596,,PICO RIVERA,CA,90660,(310) 699-3461,,,
RCG COMPANY,P.O. BOX 7254,,CAPISTRANO BEAC,CA,92624,(949) 661-7408,,,
"JOHNSON'S GRAPHICS, INC.",13023 LA DANA CT.,,SANTA FE SPRING,CA,90670,(562) 941-0888,(562) 941-0887,,
LANDMARK FENCE,3964 MISSION BLVD.,,MONTCLAIR,CA,91763-5301,(909) 623-9450,(909) 623-9420,,
FERRY MORSE SEED CO.,P.O. BOX 1620,,FULTON,KY,42041-1620,(800) 626-3392,,,
B&M LAWN AND GARDEN,17672 YORBA LINDA BLVD.,,YORBA LINDA,CA,92886,(714) 996-5490,(714) 414-1127,,"(JUDY) JUSTIN, MARK-MGR"
GREENLEE NURSERY *,15993 EL PRADO ROAD,,CHINO,CA,91708,(909) 393-6544,(909) 393-6004,,
"SAKAIDA NURSERY, INC.",8626 E. GRAND AVE.,,ROSEMEAD,CA,91770-1298,(626) 285-9981,(626) 285-0879,bill@oakleaflandscape.com,(MIKE)
ALL AMERICAN ASPHALT,P.O. BOX 2229,,CORONA,CA,91718,(909) 736-7600,(909) 739-4657,,
WD YOUNG & SONS *,81-910 ARUS ST.,,INDIO,CA,92201,(760) 347-7906,(760) 342-6188,,(ELISA)
AG SOD FARMS,P.O. BOX 130,,PERRIS,CA,92572-0130,(800) 233-5254,(951) 928-4023,,"YOLANDA, STEPHANIE"
BARBEQUES GALORE *,2300 HARBOR BLVD. # H,,COSTA MESA,CA,92626,(   )    -,,,
SAF T CO,1300 E. NORMANDY PLACE,,SANTA ANA,CA,92705,(714) 547-9975,(714) 547-2983,,(MARGO)
AGUINAGA FERTILIZER,4790 IRVINE BLVD.  #105-418,,IRVINE,CA,92620,(949) 786-9558,(949) 786-9574,760 576 6401,
ORANGE COAST FORD TRACTOR,1451 MANHATTAN AVE.,,FULLERTON,CA,92831,(714) 538-2116,(714) 771-1282,,
GALLO'S NURSERY,P.O. BOX 3367,,SO. EL MONTE,CA,91733-4136,(626) 279-2540,,,
SURFACE AMERICA,P.O. BOX 157,,WILLIAMSVILLE,NY,14231,(000) 000-0000,,,
NEW EARTH CONSTRUCTION,"23011 MOULTON PARKWAY, STE. F5",,LAGUNA HILLS,CA,92653-1226,(714) 859-4007,,,
GROWEST NURSERIES,,1700 GROWEST AVENUE,RIVERSIDE,CA,92504-5307,(951) 780-1552,(951) 780-6676,,RUSS KELLY  951 768 6944
EL TORO MATERIALS,20851 EL TORO RD.,,EL TORO,CA,92630,(949) 458-7993,,,
ARCHITECTURAL POTTERY,15161 VAN BUREN,,MIDWAY CITY,CA,92655,(714) 895-3359,(714) 898-5109,,DAWN
GOODWIN INTERNATIONAL  *,3121 SOUTH OAK STREET,,SANTA ANA,CA,92707,(714) 241-0942,(714) 241-1874,,(GRACIE)
ORANGE COAST PETROLEUM EQ,1015 N PARKER AVENUE,,ORANGE,CA,92667,(714) 744-4049,(714) 744-0638,,VICTOR 714 822 4221
NOLTRE NURSERY SERVICES,P.O. BOX 892093,,TEMECULA,CA,82589,(909) 695-2037,,,
AMERICAN FENCE COMPANY,P.O. BOX 18886,,PHOENIZ,AZ,85005-8886,(562) 941-3478,,,
ALANS LAWNMOWER & GARDEN,4621 W. FIRST STREET,,SANTA ANA,CA,92703,(714) 775-1250,(714) 775-2071,,SOPHIA
DESIGNED II,32183 OLD 395,,ESCONDIDO,CA,92026,(760) 728-2641,(760) 451-0265,,ALENE
COAST RECREATION *,3151 AIRWAY AVE. #A-3,,COSTA MESA,CA,92626,(714) 619-0100,(714) 619-0106,,
ALL VALLEY ENVIRONMENTAL,P.O. BOX 7003,,BIG BEAR LAKE,CA,92315-7003,(714) 534-8841,,,
JODAN FARMS,26550 PABESU ROAD,,MURRIETA,CA,92562,(909) 679-9009,(909) 679-2171,,JULIA
"ALLSTAR PAVING CO., INC.","1540 E. EDINGER, STE. E",,SANATA ANA,CA,92705,(   )    -,,,.
CALIFORNIA LANDSCAPE,LIGHTING,31260 CEDAR VALLEY DRIVE,WESTLAKE VILL.,CA,91362,(800) 457-0710,,,
COLUMBIA CASCADE *,"1300 S.W. SIXTH AVE., #310",,PORTLAND,OR,97201-3464,(800) 547-1940,(503) 223-4530,HQ@TIMBERFORM.COM,
"BELANGER BROS.AUTOMOTIVE,INC.",813 N. ANAHEIM BLVD.,,ANAHEIM,CA,92805-1902,(714) 535-4444,(714) 535-3955,,(PATTY)
NORMAN'S NURSERY,8665 EAST DUARTE ROAD,,SAN GABRIEL,CA,91730,(626) 237-0648,(626) 237-0657,,(NANCY)
NEFF RENTAL,1354 N. RED GUM,,ANAHEIM,CA,92806,(714) 632-1701,(714) 632-1986,,
PACIFIC TECHNICAL SERVICES,P.O. BOX 116,,NOVATO,CA,94948-0116,(800) 427-0779,,,
"TFN ARCHITECHTURAL SIGNAGE,INC",3411 W. LAKE CENTER DR.,,SANTA ANA,CA,92704,(714) 556-0990,(714) 850-4888,,
HOME DEPOT CREDIT SERVICES,DEPT.32- 2001467285,PO BOX 6029,THE LAKES,NV,88901-6029,(800) 685-6691,,,
DURA ART STONE *,,"1785 LOCUST STREET, SUITE 11",PASADENA,CA,91106,(800) 821-1120,(626) 577-6006,,judy   (CAROLYN 650-965-7100)*
EARTH WORKS SOIL AMENDMENT,1725 AGUA MANSA ROAD,,RIVERSIDE,CA,92509,(951) 782-0260,(951) 782-0268,,909-538-3322 JIM  (MARIA)
ORANGE-PACIFIC CONSTRUCTION,601 N. BATAVIA,,ORANGE,CA,92868,(714) 288-0489,(714) 288-0653,,(MARIE- 627-2173)  (DAN)
MISSION POOLS,755 WEST GRAND AVE.,,ESCONDIDO,CA,92025,(760) 743-2605,(760) 743-0384,,RICK HACKETT
SERVICE 1ST,2681 DOW STREET,SUITE A,TUSTIN,CA,92780,(714) 508-0210,(714) 508-7481,,CATHRINE
ADVANTAGE CONCR. CUTTING,229 LEANDRO STREET,,ANAHEIM,CA,92807,(714) 630-8338,(   )    -,,PHILIP LAUCK
JOE T. MORALES,31391 PASEO RIOBO,,SAN JUAN CAPIS,CA,92675,(949) 573-7021,,,FAX 949 240 6837
NATIONAL CONSTRUCTION RENTALS,P.O. BOX 4503,10403 GLENOAKS BLVD,PACOIMA,CA,91333-4503,(   )    -,(   )    -,,jenny-collections dept.
PACIFIC SHORES MASONRY,1369 WALKER LANE,,CORONA,CA,92879,(951) 371-8550,(951) 371-9075,,
MONROE PACIFIC WHOLESALE,10449 E. ADAMS AVENUE,,HUNTINGTON BCH,CA,92646,(   )    -,,,
PETE'S ROAD SERVICE,2230 E. ORANGETHORPE AVE.,,FULLERTON,CA,92831-5329,(310) 324-8200,(   )    -,,"MELADEE,(MELISA)"
ORANGE COUNTY SANDBAGGER,2424 N. BATAVIA STREET,PO BOX 3101,ORANGE,CA,92865,(714) 637-2000,(714) 637-5378,,
"COMLOGIX, INC.","2211 E. WINSTON ROAD, STE F",,ANAHEIM,CA,92806,(714) 234-2180,(714) 234-2199,,
AQUARIUS POOLS & SPA,"27068 LA PAZ ROAD, SUITE 445",,ALISO VIEJO,CA,92856-3041,(949) 831-7900,(949) 831-5886,,
WEST COAST SAND & GRAVEL,P.O. BOX 5067,,BUENA PARK,CA,90620,(714) 522-0282,(714) 562-2758,,HARLY
UNDERGROUND SHORING SPEC.,1400 E ORANGETHORPE AVENUE,,FULLERTON,CA,92831-5228,(714) 879-1005,(714) 879-4612,,
BROTHERS NURSERY,5724 N. WILLARD AVE.,,SAN GABRIEL,CA,91775,(909) 599-3469,(909) 599-8192,,ROMAN O PABLO
NATURES GROWERS,1621 S. EUCLID,,ANAHEIM,CA,92802,(714) 999-1190,(714) 635-7327,,RODOLFO
EVERHOT MANUFACTURING,57 SO. 19TH AVENUE,,MAYWOOD,IL,60153,(708) 865-7070,,,
STANDARD CONCRETE PRODUCT,P.O. BOX 15326,,SANTA ANA,CA,92705,(714) 245-1550,(714) 245-2973,,
B&B STEEL INC.,5122 PATTERSON AVE.,,PERRIS,CA,92571,(951) 657-0654,(951) 943-1200,,JIM
"BOYCE INDUSTRIES, INC.",1105 POINSETTIA STREET,,SANTA ANA,CA,92701,(714) 667-7111,,,
POWER PLUS UTILITY SERVICES,681 SOUTH PARKER ST.,SUITE 300,ORANGE,CA,92868,(714) 764-0020,(714) 630-3440,,
"SUPERIOR WALL SYSTEMS, INC.","1200 N. JEFFERSON, SUITE J",,ANAHEIM,CA,92807,(714) 666-2680,,,
BC WIRE ROPE & RIGGING,2720 E. REGAL PARK DRIVE,,ANAHEIM,CA,92806-2417,(800) 669-5919,,,
"CRANE RENTAL SERVICE, INC",1901 WEST COLLINS STREET,,ORANGE,CA,92867,(714) 997-3100,(714) 771-5800,,MITCH
COUNTRY CASUAL *,7601 RICKENBACKER DRIVE,,GAITHERSBURG,MD,20879,(800) 284-8325,(301) 926-9198,,KAREN ROTHBAUM
THE LANDSCAPE CENTER *,2995 VAN BUREN,A-13 PMB 235,RIVERSIDE,CA,92503,(951) 352-8383,(951) 352-3655,LEE@TLCNURSERIES.COM,951/352-5824 direct fax
CONTRACTOR'S EQUIPMENT CO,P.O. BOX 80548,,SAN DIEGO,CA,92138,(   )    -,,,CARMELO
PACIFIC COAST NURSERY *,1924 MONROE STREET,,RIVERSIDE,CA,92504,(951) 689-1777,(951) 689-1640,,STEVE ADAMS
ROBERTSON INDUSTRIES,2146 WEST SHERMAN,,PHOENIX,AZ,85009,(602) 265-7715,,,RICHARD
PARDEE TREE NURSERY,P.O. BOX 240,,BONSALL,CA,92003-0240,(760) 630-5400,(760) 630-8276,,ZACH DAVIS
VALLEY CREST TREE CO.,24151 VENTURA BLVD.,,CALABASAS,CA,91302,(805) 524-3939,(805) 524-4354,,BILL
PRAXAIR DISTRIBUTION,DEPT LA21511,,PASADENA,CA,91185-1511,(714) 547-6684,(714) 542-6689,,(CHERLY/BILL ERDLE-564-7332)
EXCAVATION SUPPLY,PO BOX 2829,,CORONA,CA,92878-2829,(800) 624-1727,(800) 865-8910,,(LANA)
DITCH WITCH OF SOUTHERN CALIF.,1201 E. SIXTH STREET,,CORONA,CA,92879,(800) 491-9004,(909) 735-8480,,JESSE
MOCKINGBIRD NURSERY,1670 JACKSON,,RIVERSIDE,CA,92504,(951) 522-1118,,,951 780 4037  JOANNIE
DM COLOR EXPRESS,P.O. BOX 220,,SAN JUAN CAPIS,CA,92693,(760) 732-3501,(949) 496-9474,,org fax 714 921 1004
PLANT STAND,2972 A CENTURY PLACE,,COSTA MESA,CA,92626,(714) 966-0797,,,
RICHARD W. VEYNA & ASSOC.,15188 CARRETERA DRIVE,,WHITTIER,CA,90605,(   )    -,,,
DL CUNNINGHAM,441 OLD NEWPORT BLVD.,,NEWPORT BEACH,CA,92663-4231,(949) 261-7191,(949) 261-7199,,CAROL
IMPERIAL SPRINKLER,1485 N. MANASSERO STREET,,ANAHEIM,CA,92807,(714) 792-2925,(714) 792-2921,,MANUEL
"RK INDUSTRIES, INC.",PMB 446,2431-B 160 ANTONIO PARKWAY,RNCHO SNTA MARTA,CA,92688,(949) 459-2047,,,
KEG GRAPHICS,7309 MURDY CIRCLE,,HUNT. BEACH,CA,92647,(714) 841-1131,,,(JIM)
BC TURF,2300 NEWPORT BOULEVARD,,COSTA MESA,CA,92627,(714) 645-5020,,,
NEENAH FOUNDRY,BOX 729,,NEENAH,WI,54956-0729,(414) 725-7000,,,
PARK SPECIALTIES,P.O. BOX 891833,,TEMECULA,CA,92589-1833,(800) 399-8484,(760) 728-1177,,ROBERT
ENVIRONMENTAL LANDSCAPE,"PRODUCTS, INC.",24121 VENTURA BLVD.,CALABASAS,CA,91302,(818) 737-2600,(949) 553-9115,,CAROL
"DITCH WITCH OF SO.CA,SAN DIEGO","1702 N. MAGNOLIA AVE, 102",,EL CAJON,CA,92020,(619) 448-0770,,,
RSA SUTTER SOIL PRODUCTS,701 W. GROVE AVE.,,ORANGE,CA,92665,(714) 998-7720,(714) 921-9612,,JOHN
SMITH & HAWKEN,4 HAMILTON LANDING,,NOVATO,CA,94949,(415) 389-8300,,,
EL MAISTRO TRANSMISSION,376 E. ORANGETHORPE AVE.,,PLACENTIA,CA,92670,(714) 572-1086,(714) 572-1096,,ROGER
LAGUNA KOI PONDS,20452 LAGUNA CANYON RD,,LAGUNA BEACH,CA,92651,(000) 000-0000,,,
"TRAFFIC CONTROL SVC, INC.",1881 BETMOR LANE,,ANAHEIM,CA,92805-6701,(714) 935-2875,(714) 937-1070,,
HAULAWAY STORAGE CONTAINERS,P.O. BOX 186,,STANTON,CA,90680-0186,(714) 826-9040,(714) 893-7833,,BIATRIZ
J & M SERVICE INC.,11532 ANABEL AVE.,,GARDEN GROVE,CA,92643,(714) 530-3325,(714) 638-8572,,
VILLA D'ESTE,13551 HARBOR BLVD.,,GARDEN GROVE,CA,92643,(714) 537-8443,,,
Z BEST CONCRETE,2575 MAIN ST.,,RIVERSIDE,CA,92501-2238,(909) 785-5542,,,
TRIDENT METALS,1430 E. WALNUT AVE,,FULLERTON,CA,92832,(000) 000-0000,,,
VILLAGE NURSERIES WHOLESALE *,P.O. BOX 5465,,ORANGE,CA,92863-5465,(714) 279-3100,(714) 279-3130,,JOHN
HOLLYWWOOD ELECTRIC,P.O. BOX 85626,,LOS ANGELES,CA,90072,(800) 469-3637,(626) 433-4839,,FELICIA
"UNIVAR USA, INC.",FILE 56019,,LOS ANGELES,CA,90074-6019,(714) 939-1928,(714) 939-1935,,MARY/(425-889-3604)
HSBC BUSINESS SOLUTIONS-COSTCO,P.O. BOX 5219,,CAROL STREAM,IL,60197-5219,(   )    -,,,
VILLA LANDSCAPE PRODUCTS,18363 PASADENA ST.BLDG. J,,LAKE ELSINORE,CA,92530,(714) 630-3181,(866) 808-4552,,TERRY
"SOIL & PLANT LABORATORY,INC.",P.O BOX 6566,,ORANGE,CA,92613-6566,(714) 282-8777,,,christina
CARTER CO.,P.O. BOX 100366,,PASADENA,CA,91189-0366,(714) 579-1181,,,
SANDERS HYDRO-SEEDING INC,17130 VAN BUREN BLVD  # 424,,RIVERSIDE,CA,92504,(951) 789-6821,(951) 789-6921,,TREVER
J.J. KELLER & ASSOCIATES,3003 W. BREEZEWOOD LANE,,NEENAH,WI,54957-0548,(920) 722-2848,,,
"CARTRIDGE RENEW, INC.","635 N. ECKHOFF ST, Q",,ORANGE,CA,92868,(714) 634-1822,,,
CEJA LANDSCAPE,906 E. OCCIDENTAL,,SANTA ANA,CA,92707,(   )    -,,,
J & B AUTO PARTS,1700 NORTH TUSTIN AVENUE,,ORANGE,CA,92865-4603,(714) 637-3670,(714) 637-0322,,NILA
CODEKAS TOOL AND EQUIPMENT DBA SNAP-ON,630 BRIARWOOD DRIVE,,BREA,CA,92821,(714) 713-1159,,,NICK CODEKAS
SOUTHWEST BOULDER & STONE,5002 2nd STREET,,FALLBROOK,CA,92028,(760) 497-2390,(760) 451-3335,,MICHELLE
HOME OIL CO. OF ANAHEIM,1422 WEST BROADWAY,,ANAHEIM,CA,92802-3580,(714) 535-2126,(714) 535-6374,,
KRC ROCK,PO BOX 729,,SAN MARCOS,CA,92079-0729,(760) 744-1036,(760) 744-4814,,
FAIRWAY FORD,1350 E. YORBA LINDA BLVD.,,PLACENTIA,CA,92670,(714) 524-1200,(714) 996-5610,,TONY   (MICHELLE)
JAUREGUI NURSERY,551 W. ALONDRA BLVD.,,GARDENA,CA,90247,(310) 327-6642,,,
"HYDRO-SCAPE PRODUCTS, INC.*",,,LOS ANGELES,CA,90074-6251,(714) 639-1850,(714) 744-4314,,JUAN GARCIA
ZIEMAN TRAILER,120 E. CENTRAL AVENUE,,SAN BERNARDINO,CA,92408-2207,(909) 888-1411,(909) 885-5479,,
CINTAS,15541 MOSHER ST.,,TUSTIN,CA,92780,(714) 639-8577,(714) 639-0744,,LORIE EX-139
BRASS BARON,10151 PACIFIC MESA BLVD.,,SAN DIEGO,CA,92121,(858) 455-0050,,,
ATWOOD LANDSCAPE SALES,719 LAKEVIEW AVENUE,,PLACENTIA,CA,92870-6721,(714) 779-2661,,,(HUGH)
CENTURY PRODUCTS,1144 N. GROVE STREET,,ANAHEIM,CA,92806,(714) 632-7083,(714) 632-5470,,
HAMIL CONCRETE CUTTING,621 ALCOTT AVE.,,PLACENTIA,CA,92670-2702,(714) 993-4599,(714) 993-4599,,CELEST -cell 715-8766
"ECONOMY RENTALS, INC",1771 W. LINCOLN AVE.,,ANAHEIM,CA,92801,(   )    -,,,
CONTINENTAL CHEMICAL,"6910 OSLO CIRCLE, UNIT B",,BUENA PARK,CA,90621,(714) 224-3711,(714) 224-3713,,(AMY)
AYON NURSERY,P. O. BOX 91922,,CITY OF INDUSTRY,CA,91715-1922,(626) 330-2070,(626) 330-2072,,JESUS  626 255 3155
"HARDY & HARPER, INC.",1312 E. WARNER AVENUE,,SANTA ANA,CA,92705,(714) 444-1851,(714) 352-7098,,STEVE-EXT 115-4122613-CELL
OUTDOOR SEASONS,2201 S WABASH STREET,,DENVER,CO,80231,(800) 800-1819,(800) 800-1770,,
MIDAS MUFFLER AND BRAKE,2312 E. LINCOLN AVENUE,,ANAHEIM,CA,92806,(714) 254-0227,,,
LESCO,P.O. BOX 931341,,CLEVELAND,OH,44193-0469,(   )    -,,,
GP RESOURCES,P.O. BOX 499,1006 PIER F AVENUE,LONG BEACH,CA,90801-0499,(562) 983-7300,(562) 983-1438,,ANITA SILVA
LA CRESTA ENTERPRISES,P.O. BOX 5257,,SAN CLEMENTE,CA,92674,(949) 369-6335,,,
TREE OF LIFE NURSERY,33201 ORTEGA HY,,SAN JUAN CAPISTR,CA,92675,(949) 728-0685,(949) 728-0509,,DEBBIE OR JR
ORANGE COAST LANDSCAPING,,,,CA,,,,,RAYMOND
"FERGUSON ENTERPRISES, INC.",P.O. BOX 54228,,LOS ANGELES,CA,90054-0228,(909) 364-8800,,,
ORCO CONSTRUCTION SUPPLY,DEPT. 05891,P.O. BOX 39000,SAN FRANCISCO,CA,94139-5891,(714) 556-8300,,,
BOOSTER PUMP TECHNOLOGIES,P.O. BOX 400668,,HESPERIA,CA,92340,(760) 947-6457,(760) 947-5493,,
SENNA TREE COMPANY,3115 FOOTHILL BLVD.,SUITE M140,LA CRESENTA,CA,91214,(818) 957-5755,(818) 957-5255,,
BEDROCK PUMPING,P.O. BOX 6544,,ORANGE,CA,92863-6544,(949) 240-4645,,,
BERYLWOOD TREE FARM,1048 E. LA LOMA AVE.,,SOMIS,CA,93066,(805) 485-7601,(805) 485-8268,,
GREENWOOD DAYLILY GARDENS *,8000 BALCOM CANYON ROAD,,SOMIS,CA,93066,(562) 494-8944,(562) 494-0486,,
AQUA BACKFLOW AND CHLORINATION,P.O. BOX 396,,WALNUT,CA,91788,(714) 956-1419,(909) 598-1344,,CHRIS
DOUGLAS BENDER AND ASSOCIATES,557 WALD,,IRVINE,CA,92618,(949) 777-4300,(949) 777-4303,,
"KRISTAR ENTERPRISES, INC.",P.O. BOX 7352,,SANTA ROSA,CA,95407,(800) 579-8819,(707) 542-8186,,
SWINGS N' THINGS,23851 VIA FABRICANTE,SUITE 201,MISSION VIEJO,CA,92691,(949) 770-7799,(949) 770-2047,,
HADDONSTONE *,32207 UNITED AVENUE,,PUEBLO,CO,81001,(719) 948-4554,(719) 948-4285,,
QUALITY TURF INC.,21400 BUNDY CYN RD.,,WILDOMAR,CA,,,(909) 695-5670,,
"CALIFORNIA TURF PRODUCTS, INC.",P.O. BOX 30598,,LOS ANGELES,CA,90030-0598,(760) 734-4200,(760) 734-4285,,
JESSICA NURSERY,8940 MISSION BLVD.,,RIVERSIDE,CA,92509,(909) 681-9022,(909) 681-7859,,
TIERRA VERDE INDUSTRIES,P.O. BOX 279,,IRVINE,CA,92650-0279,(949) 551-0363,(949) 551-1532,,RENDY 1949 500 8758
AMISH COUNTRY GAZEBOS & SWINGS,739 EAST FRANCIS STREET,,ONTARIO,CA,91761,(909) 947-3095,(909) 947-2985,,
GREENWAYS ENVIRONMENTAL  LLC,"22365 EL TORO RD., PMB #133",,LAKE FOREST,CA,92630,(949) 380-8301,(949) 380-8352,,DIANE
SEPULVEDA BUILDING MATERIALS,28092 FORBES RD.,,LAGUNA NIGUEL,CA,92677,(949) 347-2100,(949) 347-2102,,
"VAN DELL AND ASSOCIATES, INC.",17801 CARTWRIGHT ROAD,,IRVINE,CA,92614,(949) 474-1400,,,
PRO LANDSCAPE AND,GARDENERS SUPPLIES,1131 N. KRAEMER PL.,ANAHEIM,CA,92806,(800) 457-0710,(714) 533-7540,,
SAN MARCOS GROWERS,P O BOX 68.27,,SANTA BARBARA,CA,93160-6827,(805) 683-1561,(805) 964-1329,,
"JARDINIER PLANTER SYSTEMS, INC",16520 HARBOR BLVD. # F,,FOUNTAIN VALLEY,CA,92708,(714) 241-4200,(714) 241-4203,,
LA CRESTA TREE CO.,3966 RIVER RIDGE DR.,,NORCO,CA,92860-1100,(760) 451-9493,(760) 451-1361,,(DAN CELL: 909-538-4940)
SPJ LIGHTING,,,,CA,,(800) 469-3637,(626) 433-4839,,CHRIS GONZALES
JANSEN ORNAMENTAL SUPPLY CO,10926 SCHMIDT ROAD,,EL MONTE,CA,91733,(626) 422-0271,(626) 444-3847,,
CALIFORNIA STRAW WORKS,5531 STATE AVE,,SACRAMENTO,CA,95819,(916) 453-1456,,,
PACIFIC BELL 949-654-4960,PAYMENT CENTER,,VAN NUYS,CA,91388-0001,(800) 310-2355,,,
"JCT COMPANY, INC.",3435 SOLEDAD CANYON ROAD,,ACTON,CA,93510,(661) 269-4463,(661) 269-0447,,(JUDY)
OROZCO LANDSCAPE AND TREE,11194 PIPELINE AVE,,POMONA,CA,91766,(909) 623-8287,(909) 469-0634,,
"ARAKAWA NURSERY, INC.",PO BOX 1148,,CORONA,CA,92878,(909) 734-4121,(909) 734-5964,,
SEAVY-COPELAND SAWDUST INC.,PO BOX 4450,,ANAHEIM,CA,92803,(909) 946-2792,(909) 946-9033,,
MIRAMAR WHOLESALE NURSERIES,PO BOX 22598,,SAN DIEGO,CA,92192,(949) 283-3081,(858) 552-1314,,VIKY
MCE CONSULTANTS,1100 S. COAST HWY #318,,LAGUNA BEACH,CA,92651,(949) 376-6407,(949) 376-6417,,
P & F DISTRIBUTORS,2376 FIRST STREET,,LA VERNE,CA,91750-5545,(909) 596-6887,(909) 596-7884,,
"SPECTRATURF, INC.",135 S LASALLE  DEPT 2271,,CHICAGO,IL,60674-2271,(909) 734-5617,(909) 735-3738,,
WAKEFIELD COMPANY *,ACCOUNTS RECEIVABLE,PO BOX 60067,IRVINE,CA,92620,(949) 552-1130,(949) 552-1626,,PATTY/ MAYA
"KOMPAN, INC. *",7717 NEW MARKET ST.,,OLYMPIA,WA,98501,(800) 553-2446,(360) 943-3015,,
SANTA CATALINA NURSERY LLC,31405 OLD HIGHWAY 395,SUITE A,ESCONDIDO,CA,92026,(760) 751-4035,(760) 751-4036,,"ALEYDA ESPINOZA ,  MARIA ROJAS"
WEST COAST TURF,PO BOX 4563,,PALM DESERT,CA,92261,(800) 447-1840,(760) 340-7346,,FLABIA
G&G GROWERS,P.O. BOX 521,,CHINO,CA,91710,(909) 947-3003,(909) 930-2257,,
COINER NURSERY,P.O. BOX 7217,3000 B STREET,LA VERNE,CA,91750,(909) 593-1373,(909) 593-1235,,JIM COINER/OWNER    NANCY
UNITED GREEN TECH,P.O. BOX 845,,NOVATO,CA,94948,(949) 455-7465,(415) 892-0087,,JOHN ROSS-LINDA-DIANE-KEN
PAUL BRUNING AND ASSOCIATES,20042 BEACH BLVD. STE 240,,HUNTINGTON BEACH,CA,92648,(714) 960-3115,(714) 960-4408,,
PERFORMANCE NURSERY CORP.,2501 MANHATTAN BEACH BLVD.,,REDONDO BEACH,CA,90278,(800) 525-5446,(805) 529-3918,,RAUL
SILHOUETTES OF THE DESERT,1022 LA RUEDA,,VISTA,CA,92084,(760) 727-2935,(760) 727-3907,,
JM TREE SERVICE,2225 E CENTER STREET,,ANAHEIM,CA,92806,(714) 535-8103,(714) 772-3077,,
HARRIS FENCE COMPANY,15188 VISTA DEL RIO,,CHINO,CA,91710-9694,(909) 597-4714,(909) 597-9152,,GARY FREDRIC
EVERDE GROWERS,P.O. BOX 5465,,ORANGE,CA,92863-5465,(714) 279-3100,(714) 279-3199,,JOHN B.
JOHN E BATINA,277 S RASPBERRY LANE,,ANAHEIM HILLS,CA,92808,(714) 283-3436,,,
ARMSTRONG GARDEN CENTER,,,,CA,,,,,
BOTANICAL PARTNERS,2498 MAJELLA ROAD,,VISTA,CA,92084,(760) 801-9040,(760) 631-1909,,
GARDENSIDE LTD *,999 ANDERSEN DRIVE,,SAN RAFAEL,CA,94901,(415) 455-4500,(415) 455-4505,,
J & E WROUGHT IRON,5745 WACO STREET,CONT LICENSE REVOKED 6/8/04,CHINO,CA,91710,(909) 465-0664,(909) 465-0961,,JOSE & EDGAR PADILLA
CALIFORNIA TROPICAL FRUIT TREE,2840 STATE STREET,,CARLSBAD,CA,92008,(760) 434-5085,,,
PTI SAND & GRAVEL,14925 RIVER ROAD,,CORONA,CA,92880,(951) 272-0140,(951) 737-1295,,
"KINGSLEY-BATE, LTD",7200 GATEWAY COURT,,MANASSAS,VA,20109,(703) 361-7000,(703) 361-7001,,
"BOETHING TREELAND FARMS, INC",23475 LONG VALLEY ROAD,,WOODLAND HILLS,CA,91367,(818) 316-2081,(818) 712-6979,,RODRIGO VENEGAS
OUTDOOR DIMENSIONS,1818 E ORANGETHORPE AVENUE,,FULLERTON,CA,92831,(714) 578-9555,(714) 578-9578,,
AG ORGANICS,7215 WOODPIGEON ROAD,,CORONA,CA,92880,(   )    -,,,
CAMBRIDGE PINES NURSERY,1550 N. CAMBRIDGE RD,,ORANGE,CA,92867,(714) 402-0982,,,ED HOFMAYER
LEONARD CHAIDEZ TREE SERVICE,P.O. BOX 29,,ANAHEIM,CA,92815-0029,(714) 774-8121,,,
REDWOOD PRODUCTS,P.O. BOX 2662,,CORONA,CA,92878-2662,(909) 923-5656,(909) 923-3756,,"(VANESSA,ROSIE,DEBBIE)946-2792"
"MITSUWA NURSERY, INC.",P O BOX 487,,MOORPARK,CA,93020-0487,(805) 529-0419,,,
"WAUSAU TILE, INC. *",P O BOX 967,,BANNING,CA,92220,(800) 231-4836,(909) 849-4781,,CHRIS EXT. 327
"GENESIS GROWERS, INC.",27130A PASEO ESPANDA #1423,SAN JUAN CAPISTRANO,,CA,92675,(949) 240-0681,(949) 240-3228,,
THOMPSON BUILDING MATERIALS,PO BOX 276,,LOMITA,CA,90717,(714) 637-7373,(714) 637-7666,,OSCAR
BARON BROTHERS NURSERY,7568 SANTA ROSA ROAD,,CAMARILLO,CA,93012-8261,(805) 484-0085,(805) 388-9694,,
SOUTHLAND SOD FARMS,P.O. BOX 579,,PORT HUENEME,CA,93044-0579,(800) 532-3489,(805) 986-3878,,
OGELBAY NORTON *,PO BOX 249,31302 ORTEGA HWY,SAN JUAN CAP.,CA,92693-0249,(949) 728-0171,(949) 728-0321,,APRIL ELECCIRI A/P EXT.326
V & E TREE SERVICE,P.O. BOX 3280,,ORANGE,CA,92857-0280,(714) 997-0903,,,
"BOULDERSCAPE, INC","34249 CAMINO CAPISTRANO, #215",,CAPISTRANO BEACH,CA,92624,(949) 661-5087,(949) 661-3397,,
STONE FOREST,213 ST FRANCIS DRIVE,,SANTA FE,MN,87501,(505) 986-8883,(505) 982-2712,,
KIDSZONE,"8801 ONYX STREET, STE A",,RANCHO CUCAMONGA,CA,91730,(909) 987-5554,(909) 987-7577,,
"PLAYPOWER LT FARMINGTON,INC.",C/O ACCOUNTS RECEIVABLE,PO BOX 734154,DALLAS,TX,75373-4154,(714) 846-4885,(573) 760-7454,accounts.receivable@playpower.com,LISA ALLEN
"WALPOLE WOODWORKERS, INC. *",767 EAST STREET,P.O. BOX 151,WALPOLE,MA,02081,(508) 668-2800,,,
KAY PARK RECREATION *,P O BOX 477,,JANESVILLE,IA,50647,(   )    -,(   )    -,,
EVERGREEN,DEPT 2457,,LOS ANGELES,CA,90084-2457,(800) 972-5284,(949) 474-9149,,
MIRACLE PARK,6481 ORANGETHORPE AVENUE,SUITE 22,BUENA PARK,CA,90620,(714) 736-8930,(714) 736-8935,,
DYNACON,16401 SARATOGA LANE,,HUNTINGTON BEACH,CA,92649,(714) 840-3257,(714) 840-3257,,
PROGRESSIVE DESIGN PLAYGROUND*,2665 VISTA PACIFIC DRIVE,,OCEANSIDE,CA,92056,(760) 597-5990,(760) 597-5991,,
MURDOCK SUPER SECUR,2488 RIVER ROAD,,CINCINNATI,OH,45204,(513) 471-7700,(513) 471-3299,,
"TOMARK SPORTS, INC",P.O. BOX 1088,,CORONA,CA,92878,(909) 371-1844,,,
GAIL MATERIALS INCORPORATED,1256 MAGNOLIA AVENUE,,CORONA,CA,92879-2027,(951) 667-6106,(951) 667-6102,,BILL  951 232 7551
ASIAN CERAMICS INC,2800 HUNTINGTON DR.,,DUARTE,CA,91010,(626) 449-6800,(626) 449-6895,,TESS
CHARLESTON GARDENS *,650 KING ST.,,CHARLESTON,SC,29403-4827,(843) 722-7460,(843) 723-1609,,
MURRIETA OAKS NURSERY,35921 GREER ROAD,,MURRIETA,CA,92562,(909) 679-0664,(909) 679-1918,,
"QUALITY FENCE CO., INC.",14929 GARFIELD AVENUE,,PARAMOUNT,CA,90723,(714) 526-1466,(562) 869-7804,,
KEYSTONE RIDGE DESIGNS *,P.O. BOX 2008,,BUTLER,PA,16003-2008,(800) 284-8208,(724) 284-1253,,KATHY
CHELSEA DECORATIVE METALS,8212 BRAEWICK DRIVE,,HOUSTON,TX,77074,,,,
SAF DEK BY PATHWAY SURFACES,C/O GULF COAST BANK & TRUST CO,PO BOX 203047,HOUSTON,TX,77216,(225) 293-7760,(225) 293-8471,,ANGELA-EX. 248
GARDEN ART INTERNATIONAL *,24121 VENTURA BLVD.,,CALABASAS,CA,91302,(714) 541-4200,(714) 541-3700,,(DIV.OF VALLEY CREST) KATHY *
KIMS IRON WORKS *,2331 E ORANGETHORPE AVENUE,,FULLERTON,CA,92831,(714) 441-1800,(714) 680-0282,,
TROPITONE FURNITURE *,4200 RIVER AVE.,,NEWPORT BEACH,CA,92663,(949) 645-6161,(949) 645-6162,,
FOREST WOOD FIBER PRODUCTS,P. O. BOX 279,,LAKE ELSINORE,CA,92351,(909) 678-7574,(909) 678-2684,,
LINNERT BUILDERS,1675 N. SHAFFER,,ORANGE,CA,92867,(714) 974-4393,,,
P. W. GILLIBRAND COMPANY,4537 ISH DRIVE,,SIMI VALLEY,CA,93062,(800) 760-4083,(805) 522-4031,,
"ZAINO TENNIS COURTS, INC.",950 N. BATAVIA,,ORANGE,CA,92867,(714) 744-1885,(714) 744-2877,,RICHARD
STONESMITH GARDEN VESSELS,P. O. BOX 713,,CAMBRIA,CA,93428,(805) 927-0827,(805) 927-3707,,
"PORTA-JOHN SYSTEMS, INC.",50633 RYAN ROAD,,UTICA,MI,48317,(800) 521-6310,(586) 731-0670,,EARL BRAXTON
D.M. BRAUN & COMPANY,411 WEST LAMBERT ROAD,SUITE #404,BREA,CA,92821,(714) 674-0855,(714) 674-0860,,
PIPELINE IRRIGATION SUPPLY INC,C/O ACCOUNTING DEPARTMENT,PO BOX 225,SANTA CLARA,CA,95052-0225,(714) 429-0410,(714) 429-0411,,PAULA   (LORI)   (VALERIE) *
JON'S FLAGS & POLES,3215 CHICAGO AVENUE,,RIVERSIDE,CA,4480L-50,(909) 682-0134,(909) 682-4346,,
"ORANGE COUNTY NURSERY, INC.",5485 GRIMES CANYON ROAD,,MOORPARK,CA,93021,(800) 569-0169,(805) 517-1213,,(ROGER 714-390-6850)(ROSA)
ABC NURSERY,424 E. GARDENA BLVD.,,GARDENA,CA,90248,(310) 327-9212,(310) 327-1608,,BRAIN
VAN NESS WATER GARDENS,2460 N. EUCLID AVENUE,,UPLAND,CA,91784-1199,(909) 982-2425,(909) 949-7217,,
PACIFIC SOIL STABILIZATION,1279 W. STOWELL ROAD UNIT 'A',,SANTA MARIA,CA,93458-9720,(805) 925-7737,(805) 925-4787,,
LA CRESTA PLASTIC FENCE,40101 LA CRESTA,,MURRIETA,CA,92562,(909) 677-9313,(909) 677-9313,,
MIRACLE PLAYGROUND SALES *,9196 STELLAR COURT,,CORONA,CA,92883,(   )    -,(877) 215-3869,,ALLISON (SEE MEMO FOR NUMBERS)
"PROLER GARDEN ANTIQUES, INC.",528 PALISADES DR. SUITE 501,,PACIFIC PALISADS,CA,90272,(310) 459-0477,(310) 459-2577,,LYNETTE G. PROLER
AUTHENTIC PROVENCE,522 CLEMATIS STREET,,WEST PALM BEACH,FL,33401,(561) 805-995,(561) 805-5730,,ERIK DE BOURBON
WALTERS WHOLESALE ELECTRIC *,1050 N. KRAEMER PL.,,ANAHEIM,CA,92806,(714) 630-7321,(714) 630-3284,,
SALCO GROWERS,6236 BELLFLOWER BLVD.,,LAKEWOOD,CA,90713-1066,(562) 866-7063,(562) 804-1363,,
LAZY HILL FARM DESIGNS INC.,230 GLOVERS CROSS RD.,PO BOX 235,COLERAIN,NC,27924-0235,(252) 356-2828,(252) 356-2040,,
GARDENERS SUPPLY,128 INTERVALE ROAD,,BURLINGTON,VT,05401,(800) 876-5520,(800) 551-6712,,
QUINTESSENCE COMPANY,BUILDING MAINTENANCE,2535 CAMINO DEL RIO SOUTH #205,SAN DIEGO,CA,92108,(619) 686-8787,,,(JESSICA LAXISON)
"BRANDELI ARTS, INC.",,,,CA,,,,,
TRENCH SHORING CO.,636 EAST ROSECRANS AVE.,,LOS ANGELES,CA,90059-3507,(310) 327-5554,(310) 323-9648,,DIGNA (951)734-4290/734-3721F
CAROLINA RUSTICA,103 CHURCH ST.,,CONCORD,NC,28025,(800) 205-7819,(704) 786-1662,,BONNY
GREEN CULTURE,32 RANCHO CIRCLE,,LAKE FOREST,CA,92630,(949) 643-8795,(949) 360-7864,,LAURA-(949-716-2000 X 213)
BROOKSTONE,1655 BASSFORD DR.,,MEXICO,MO,65265,(800) 846-3000,(573) 581-7361,,
CHAVENELLE STUDIO METALWORKS,,1155 KELLY LANE,DUBUQUE,IA,52003,(563) 583-2218,(563) 583-3566,,
R.C. NURSERY,15132 BOLSA CHICA ROAD,,HUNTINGTON BEACH,CA,92649,(714) 897-5624,(714) 897-4134,,
"GLASSICAL DESIGNS, INC.",3303 HARBOR BLVD. SUITE C-2,,HUNTINGTON BEACH,CA,92626,,,,
TARGET SPECIALTY PRODUCTS,15415 MARQUARDT AVE,,SANTA FE SPRINGS,CA,90670,(800) 352-3870,(562) 802-1786,,
LATHROP WOODWORKS INC.,136175 S. MCKINLEY AVE.,,LATHROP,CA,95330-9703,(209) 858-4173,(209) 858-4762,,SONIA
"IPIS, INC.","2720 GATEWAY OAKS DRIVE, #130",,SACRAMENTO,CA,95833,,,,
DUDEK & ASSOCIATES,605 THIRD STREET,,ENCINITAS,CA,92024,(714) 939-9810,(714) 939-9776,,THOMAS LARSON
HEMET WHOLESALE GROWERS,PO BOX 1650,,HEMET,CA,92548-1650,(800) 200-4769,(909) 652-6543,,
JUST PALM TREES *,806 E. AVENIDA PICO,SUITE I #274,SAN CLEMENTE,CA,92672,(949) 366-0310,(949) 366-0339,,
"CORONA CLAY COMPANY, INC,",628 LANCER LN,,CORONA,CA,92879-2528,,(951) 277-2667,,MARY
JUNGLESCAPES,PO BOX 235152,,ENCINITAS,CA,92023,(619) 888-6000,(760) 634-4850,,
T & R NURSERY,36298 GLEN OAKS RD.,,TEMECULA,CA,92596,(909) 694-9426,(909) 694-9578,,
R&S SOIL PRODUCTS INC.,24002 VIA FABRICANTE # 225,,MISSION VIEJO,CA,92691,(949) 830-8882,(949) 454-1992,,JEAN
PACIFIC CREST LANDSCAPE MAT'LS,31031 GEARY STREET,,MENIFEE,CA,92584,(951) 326-5802,(951) 301-9983,PACIFICREST@HOTMAIL.COM,SHELLY
HUGHES SUPPLY INC.,PO BOX 79382,,CITY OF INDUSTRY,CA,91716-9382,(949) 888-3385,(949) 888-3394,,STAFF-MGR  BARBARA A/P
NEW WEST GROWERS,1413 W.KENNETH RD #227,,GLENDALE,CA,91201,(310) 669-9378,(310) 631-5069,,CARLOS
LANDSCAPE FORMS INC.,PO BOX 78000,DEPT. 78073,DETROIT,MI,48278-0073,(818) 761-0655,(818) 761-3143,,NIRA CASEY
INSTANT JUNGLE INTERNATIONAL,2560 S. BIRCH ST.,,SANTA ANA,CA,92707,(714) 850-9227,(714) 850-9228,,ANDY 714 267 0154
"SITEONE LANDSCAPE SUPPLY,LLC",24110 NETWORK PLACE,,CHICAGO,IL,60673-1241,,(707) 792-5951,,ANDREA-MIAN CORP
RAYMOND RODRIGUEZ,9467 55TH STREET,,RIVERSIDE,CA,92509,(714) 476-4576,,,RAMON
JOAQUIN RAYO,6632 BURNHAM AVE.,,BUENA PARK,CA,90621,(714) 323-1206,,,
"CALIFORNIA SWINGS, INC. *",1431 N. DALY ST.,,ANAHEIM,CA,92806,(714) 758-1685,(714) 758-3920,,
CAL FREIGHT *,8609 BANANA AVE.,,FONTANA,CA,92335,,,,
FINYL VINYL *,ATTENTION: STRANTZ,"15201 PIPELINE LANE, UNIT A",HUNTINGTON BEACH,CA,92649,(714) 893-9921,,,
DOGGIE WALK BAGS INC. *,,1005 BRIOSO,COSTA MESA,CA,92627,(949) 200-1148,(949) 200-1149,,BUNNY
OAK LEAF STOCK,(Out of Stock Purchases),,,CA,,,,,
FOUNTAIN UNIQUE,"22822 GRANITE WAY, SUITE 'A'",,LAGUNA HILLS,CA,92653,(949) 305-7372,(949) 206-1178,,
SANCHEZ PLANT GROWER,9030 56TH STREET,,PEDLEY,CA,92509,(951) 685-1492,(951) 685-1329,,SANDRA
TUSCAN IRON WORKS INC  *,2107 CHICO AVENUE,,S.EL MONTE,CA,91733,(800) 245-9213,,,
RANA CREEK WHOLESALE NURSERY *,35351 EAST CARMEL VALLEY ROAD,,CARMEL VALLEY,CA,93924,(831) 659-2830,(831) 659-1204,,
NATIVE GROW NURSERY,27312 CALLE ARROYO,,SAN JUAN CAP,CA,92675,(949) 489-2700,(760) 749-1849,HUMBERTO@NATIVEGROW.COM,JULIE VANDERMOST
CASRON SERVICES *,8621 BELLANCA ST. SUITE 101,,WESTCHESTER,CA,90045,(310) 568-9846,(310) 568-9843,,
PETERSEN MANUFACTURING CO. INC,PRECAST CONCRETE PRODUCTS,PO BOX 664,DENISON,IA,51442,(800) 832-7383,(712) 263-5090,,
WEST COVINA NURSERIES,PO BOX 8046,,LA VERNA,CA,91750-8046,(909) 596-3723,,,
PONTO NURSERY,PO BOX 536,,VISTA,CA,92085-0536,(800) 300-6003,(760) 724-1974,,JUDY  PONTO
T. D. GROGAN CONSTRUCTION,9375 ARCHIBALD,SUITE 704,RANCHO CUCAMONGA,CA,91730,(909) 476-9100,(909) 476-9103,949-7023304-CELL,JACK
TOT TURF,,4145 W. MERCURY WAY,CHANDLER,AZ,85226,(602) 340-8873,,,
CAPISTRANO CRANE SERVICE,PO BOX 2265,,CAPISTRANO BEACH,CA,92624,(949) 388-1144,,,
SPYDER MANUFACTURING INC.,545 PORTER WAY,,PLACENTIA,CA,92870,(714) 528-8010,,NATHAN@SPYDERMAN.COM,NATHAN MONING
"EJ GROWERS, INC.",28039 SCOTT RD.  277,,MURRIETA,CA,92563,(626) 786-4209,,,EFRAIN
FREMONTIA HORTICULTURAL,6018 RENO AVE.,,TEMPLE CITY,CA,91780,(909) 673-0600,,,
"KING GROWERS, INC.",2500 MYERS,,RIVERSIDE,CA,92503,(951) 396-1717,,,
HORIZON LIGHTING,2351 MC GAW AVENUE,,IRVINE,CA,92614,,,,
PERKINS CUSTOM COATINGS,3148 MARKET STREET,,SAN DIEGO,CA,92102,(619) 236-0343,,,
STONE PROJECTS,,,,CA,,(714) 656-7863,,,
A & M ORNAMENTAL IRON,1611 RAILROAD STREET,,CORONA,CA,92880,(951) 734-6730,,,
R&S RAIN GUTTERS & SHEET METAL,9983 CEDARDALE DRIVE,,SANTA FE SPRINGS,CA,90670,(562) 714-5859,,,
BESPOKE EXTERIOR LIVING,10700 SPENCER AVENUE,,FOUNTAIN VALLEY,CA,92708,(657) 799-6242,,,
STONEWEAR INC.,2900 LOCKHEED WAY,,CARSON CITY,NV,89706,(775) 883-8300,(775) 883-8756,,CARRIE ZEIGLER
HORIZON LIGHTING,2351 MC GAW AVENUE,,IRVINE,CA,92614,(949) 336-4336,,,
TERRA BELLA NURSERY,,,,,,(619) 585-1118,(619) 585-1119,,
NEW VENDOR TEST,1222 TOWN STREET,,ANYWHERE,CA,92806,(714) 630-2222,,,
WOOD END LABORATORIES INC.,PO BOX 297,,MT VERNON,ME,04352,(800) 451-0337,(207) 293-2488,solvita@woodsend.org,
